{
  "type": "FeatureCollection",
  "features": [
    {
      "type": "Feature",
      "id": "zone-a",
      "properties": {
        "id": "zone-a",
        "name": "Zone A — Riverside",
        "risk_level": "severe",
        "risk_score": 88,
        "status": "HIGH RISK",
        "population_at_risk": 14200,
        "terrain": "Low-lying basin",
        "rainfall_mm_hr": 110,
        "water_level_m": 4.2,
        "color": "#ef4444"
      },
      "geometry": {
        "type": "Polygon",
        "coordinates": [[
          [73.845, 18.528],
          [73.860, 18.535],
          [73.875, 18.525],
          [73.855, 18.515],
          [73.845, 18.528]
        ]]
      }
    },
    {
      "type": "Feature",
      "id": "zone-b",
      "properties": {
        "id": "zone-b",
        "name": "Zone B — Downtown",
        "risk_level": "high",
        "risk_score": 64,
        "status": "MODERATE RISK",
        "population_at_risk": 28500,
        "terrain": "Urban paved",
        "rainfall_mm_hr": 95,
        "water_level_m": 2.8,
        "color": "#f59e0b"
      },
      "geometry": {
        "type": "Polygon",
        "coordinates": [[
          [73.855, 18.515],
          [73.875, 18.525],
          [73.885, 18.505],
          [73.860, 18.498],
          [73.855, 18.515]
        ]]
      }
    },
    {
      "type": "Feature",
      "id": "zone-c",
      "properties": {
        "id": "zone-c",
        "name": "Zone C — Westside",
        "risk_level": "moderate",
        "risk_score": 42,
        "status": "MODERATE RISK",
        "population_at_risk": 18000,
        "terrain": "Rolling hills, partial drainage",
        "rainfall_mm_hr": 80,
        "water_level_m": 1.5,
        "color": "#f97316"
      },
      "geometry": {
        "type": "Polygon",
        "coordinates": [[
          [73.830, 18.515],
          [73.845, 18.528],
          [73.855, 18.515],
          [73.860, 18.498],
          [73.838, 18.495],
          [73.830, 18.515]
        ]]
      }
    },
    {
      "type": "Feature",
      "id": "zone-d",
      "properties": {
        "id": "zone-d",
        "name": "Zone D — North Hills",
        "risk_level": "low",
        "risk_score": 15,
        "status": "LOW RISK",
        "population_at_risk": 9200,
        "terrain": "High elevation (32m above sea level)",
        "rainfall_mm_hr": 60,
        "water_level_m": 0.4,
        "color": "#22c55e"
      },
      "geometry": {
        "type": "Polygon",
        "coordinates": [[
          [73.860, 18.535],
          [73.870, 18.550],
          [73.890, 18.540],
          [73.875, 18.525],
          [73.860, 18.535]
        ]]
      }
    },
    {
      "type": "Feature",
      "id": "zone-e",
      "properties": {
        "id": "zone-e",
        "name": "Zone E — Industrial Port",
        "risk_level": "moderate",
        "risk_score": 55,
        "status": "MODERATE RISK",
        "population_at_risk": 5800,
        "terrain": "Flat coastal floodplain",
        "rainfall_mm_hr": 90,
        "water_level_m": 2.1,
        "color": "#f97316"
      },
      "geometry": {
        "type": "Polygon",
        "coordinates": [[
          [73.875, 18.505],
          [73.885, 18.505],
          [73.900, 18.495],
          [73.880, 18.488],
          [73.868, 18.498],
          [73.875, 18.505]
        ]]
      }
    }
  ]
}
